NORAD_CAT_ID,OBJECT_NAME,OBJECT_TYPE,EPOCH,MEAN_MOTION,ECCENTRICITY,INCLINATION,RA_OF_ASC_NODE,ARG_OF_PERICENTER,MEAN_ANOMALY,BSTAR,MEAN_MOTION_DOT,MEAN_MOTION_DDOT,TLE_LINE0,TLE_LINE1,TLE_LINE2,SEMIMAJOR_AXIS,PERIOD,APOGEE,PERIGEE,DECAYED
56778.0,STARLINK-6304,PAYLOAD,2023-08-26 18:54:05,15.69922375,0.0003716,69.9983,167.2605,263.6492,96.428,1.9662e-06,2.3e-07,0.0,0 STARLINK-6304,1 56778U 23078M   23238.78756408  .00000023  00000-0  19662-5 0  9990,2 56778  69.9983 167.2605 0003716 263.6492  96.4280 15.69922375 14042,6737.256,91.724,361.625,356.618,0.0
56778.0,STARLINK-6304,PAYLOAD,2023-08-26 20:25:50,15.69923007,0.0003674,69.9981,167.0816,263.1487,96.9291,2.0185e-06,3e-07,0.0,0 STARLINK-6304,1 56778U 23078M   23238.85128047  .00000030  00000-0  20185-5 0  9990,2 56778  69.9981 167.0816 0003674 263.1487  96.9291 15.69923007 13795,6737.254,91.724,361.595,356.644,0.0
56778.0,STARLINK-6304,PAYLOAD,2023-08-27 04:04:35,15.69930385,0.0003498,69.9975,166.1852,266.8177,93.2619,1.9483e-05,2.131e-05,0.0,0 STARLINK-6304,1 56778U 23078M   23239.16985995  .00002131  00000-0  19483-4 0  9990,2 56778  69.9975 166.1852 0003498 266.8177  93.2619 15.69930385 14105,6737.233,91.724,361.455,356.741,0.0
56778.0,STARLINK-6304,PAYLOAD,2023-08-27 20:53:52,15.69923351,0.0003579,69.9978,164.2148,269.3208,90.7577,1.9761e-05,2.164e-05,0.0,0 STARLINK-6304,1 56778U 23078M   23239.87074688  .00002164  00000-0  19761-4 0  9991,2 56778  69.9978 164.2148 0003579 269.3208  90.7577 15.69923351 13950,6737.253,91.724,361.53,356.707,0.0
56778.0,STARLINK-6304,PAYLOAD,2023-08-27 22:25:37,15.6992592,0.0003769,69.9966,164.0369,262.0651,98.0117,8.0921e-06,7.6e-06,0.0,0 STARLINK-6304,1 56778U 23078M   23239.93446288  .00000760  00000-0  80921-5 0  9994,2 56778  69.9966 164.0369 0003769 262.0651  98.0117 15.69925920 14229,6737.246,91.724,361.65,356.572,0.0
56778.0,STARLINK-6304,PAYLOAD,2023-08-28 04:32:38,15.69918509,0.000386,69.997,163.3199,265.554,94.5215,1.3119e-06,-5.5e-07,0.0,0 STARLINK-6304,1 56778U 23078M   23240.18933616 -.00000055  00000-0  13119-5 0  9992,2 56778  69.9970 163.3199 0003860 265.5540  94.5215 15.69918509 14263,6737.267,91.725,361.733,356.532,0.0
56778.0,STARLINK-6304,PAYLOAD,2023-08-28 21:21:54,15.69930189,0.0004106,69.9969,161.3473,269.9641,90.1084,7.2357e-06,6.57e-06,0.0,0 STARLINK-6304,1 56778U 23078M   23240.89021332  .00000657  00000-0  72357-5 0  9999,2 56778  69.9969 161.3473 0004106 269.9641  90.1084 15.69930189 14116,6737.234,91.724,361.865,356.332,0.0
56778.0,STARLINK-6304,PAYLOAD,2023-08-28 22:53:39,15.69928885,0.0003988,69.9973,161.169,262.3259,97.7484,5.9076e-06,4.97e-06,0.0,0 STARLINK-6304,1 56778U 23078M   23240.95392946  .00000497  00000-0  59076-5 0  9993,2 56778  69.9973 161.1690 0003988 262.3259  97.7484 15.69928885 14385,6737.237,91.724,361.789,356.416,0.0
56778.0,STARLINK-6304,PAYLOAD,2023-08-29 05:00:40,15.69923527,0.0003896,69.9974,160.4522,261.455,98.6204,-4.843e-07,-2.71e-06,0.0,0 STARLINK-6304,1 56778U 23078M   23241.20880040 -.00000271  00000-0 -48430-6 0  9994,2 56778  69.9974 160.4522 0003896 261.4550  98.6204 15.69923527 14427,6737.253,91.724,361.743,356.493,0.0
56778.0,STARLINK-6304,PAYLOAD,2023-08-30 11:35:43,15.69921431,0.0003581,69.996,156.8713,259.0469,101.0324,5.8031e-06,4.85e-06,0.0,0 STARLINK-6304,1 56778U 23078M   23242.48313707  .00000485  00000-0  58031-5 0  9998,2 56778  69.9960 156.8713 0003581 259.0469 101.0324 15.69921431 14622,6737.259,91.724,361.536,356.711,0.0
56778.0,STARLINK-6304,PAYLOAD,2023-08-31 18:10:45,15.69927146,0.0003754,69.9954,153.2911,286.8867,73.1917,4.0094e-06,2.69e-06,0.0,0 STARLINK-6304,1 56778U 23078M   23243.75747187  .00000269  00000-0  40094-5 0  9992,2 56778  69.9954 153.2911 0003754 286.8867  73.1917 15.69927146 14826,6737.242,91.724,361.637,356.578,0.0
56778.0,STARLINK-6304,PAYLOAD,2023-09-01 11:00:02,15.69916888,0.000335,69.9977,151.3199,264.886,95.1954,2.0445e-05,2.245e-05,0.0,0 STARLINK-6304,1 56778U 23078M   23244.45835769  .00002245  00000-0  20445-4 0  9997,2 56778  69.9977 151.3199 0003350 264.8860  95.1954 15.69916888 14937,6737.272,91.725,361.394,356.88,0.0
56778.0,STARLINK-6304,PAYLOAD,2023-09-02 05:21:03,15.69925632,0.0003411,69.9966,149.1672,269.031,91.0495,4.8228e-06,3.67e-06,0.0,0 STARLINK-6304,1 56778U 23078M   23245.22295490  .00000367  00000-0  48228-5 0  9997,2 56778  69.9966 149.1672 0003411 269.0310  91.0495 15.69925632 14797,6737.247,91.724,361.41,356.814,0.0
56778.0,STARLINK-6304,PAYLOAD,2023-09-02 19:06:48,15.69936413,0.0003543,69.9964,147.5544,269.3019,90.7771,1.541e-05,1.641e-05,0.0,0 STARLINK-6304,1 56778U 23078M   23245.79639493  .00001641  00000-0  15410-4 0  9996,2 56778  69.9964 147.5544 0003543 269.3019  90.7771 15.69936413 14882,6737.216,91.723,361.468,356.694,0.0
56778.0,STARLINK-6304,PAYLOAD,2023-09-02 23:42:04,15.69933678,0.00035,69.9964,147.0169,273.3014,86.7781,1.1611e-05,1.184e-05,0.0,0 STARLINK-6304,1 56778U 23078M   23245.98754697  .00001184  00000-0  11611-4 0  9992,2 56778  69.9964 147.0169 0003500 273.3014  86.7781 15.69933678 15172,6737.224,91.724,361.447,356.731,0.0
56778.0,STARLINK-6304,PAYLOAD,2023-09-03 02:45:36,15.69908282,0.000285,69.9975,146.6592,276.1039,83.9832,-1.0605e-05,-1.486e-05,0.0,0 STARLINK-6304,1 56778U 23078M   23246.11500136 -.00001486  00000-0 -10605-4 0  9994,2 56778  69.9975 146.6592 0002850 276.1039  83.9832 15.69908282 15195,6737.296,91.725,361.082,357.241,0.0
56778.0,STARLINK-6304,PAYLOAD,2023-09-04 00:10:07,15.69925932,0.0003573,69.9964,144.1501,273.0014,87.0773,2.1422e-06,4.5e-07,0.0,0 STARLINK-6304,1 56778U 23078M   23247.00702650  .00000045  00000-0  21422-5 0  9996,2 56778  69.9964 144.1501 0003573 273.0014  87.0773 15.69925932 15334,6737.246,91.724,361.518,356.704,0.0
56778.0,STARLINK-6304,PAYLOAD,2023-09-04 12:24:07,15.69932249,0.0003366,69.9977,142.7182,266.9979,93.0831,7.7847e-06,7.24e-06,0.0,0 STARLINK-6304,1 56778U 23078M   23247.51675342  .00000724  00000-0  77847-5 0  9995,2 56778  69.9977 142.7182 0003366 266.9979  93.0831 15.69932249 15159,6737.228,91.724,361.361,356.825,0.0
56778.0,STARLINK-6304,PAYLOAD,2023-09-04 18:31:07,15.69934148,0.0002899,69.9984,142.0018,253.3338,106.7539,3.5345e-05,4.041e-05,0.0,0 STARLINK-6304,1 56778U 23078M   23247.77161100  .00004041  00000-0  35345-4 0  9997,2 56778  69.9984 142.0018 0002899 253.3338 106.7539 15.69934148 15457,6737.222,91.724,361.041,357.134,0.0
56778.0,STARLINK-6304,PAYLOAD,2023-09-04 20:02:53,15.69918498,0.0003134,69.997,141.8223,266.1214,93.9623,-4.7318e-06,-7.81e-06,0.0,0 STARLINK-6304,1 56778U 23078M   23247.83534454 -.00000781  00000-0 -47318-5 0  9993,2 56778  69.9970 141.8223 0003134 266.1214  93.9623 15.69918498 15209,6737.267,91.725,361.244,357.021,0.0
56778.0,STARLINK-6304,PAYLOAD,2023-09-06 02:37:55,15.69928821,0.0003294,69.9973,138.2389,267.807,92.2749,1.2537e-05,1.295e-05,0.0,0 STARLINK-6304,1 56778U 23078M   23249.10967393  .00001295  00000-0  12537-4 0  9990,2 56778  69.9973 138.2389 0003294 267.8070  92.2749 15.69928821 15662,6737.238,91.724,361.322,356.883,0.0
56778.0,STARLINK-6304,PAYLOAD,2023-09-06 22:30:42,15.6993461,0.0003437,69.997,135.91,263.8372,96.2432,-9.545e-06,-1.361e-05,0.0,0 STARLINK-6304,1 56778U 23078M   23249.93798897 -.00001361  00000-0 -95450-5 0  9994,2 56778  69.9970 135.9100 0003437 263.8372  96.2432 15.69934610 15536,6737.221,91.724,361.402,356.77,0.0
56778.0,STARLINK-6304,PAYLOAD,2023-09-07 19:55:13,15.69947651,0.0003528,69.9969,133.4017,268.506,91.5731,-3.3736e-05,-4.271e-05,0.0,0 STARLINK-6304,1 56778U 23078M   23250.83002169 -.00004271  00000-0 -33736-4 0  9996,2 56778  69.9969 133.4017 0003528 268.5060  91.5731 15.69947651 15675,6737.184,91.723,361.426,356.672,0.0
56778.0,STARLINK-6304,PAYLOAD,2023-09-08 02:02:14,15.69930757,0.0003445,69.9969,132.6851,267.0296,93.0505,1.2338e-05,1.271e-05,0.0,0 STARLINK-6304,1 56778U 23078M   23251.08488978  .00001271  00000-0  12338-4 0  9990,2 56778  69.9969 132.6851 0003445 267.0296  93.0505 15.69930757 15973,6737.232,91.724,361.418,356.776,0.0
56778.0,STARLINK-6304,PAYLOAD,2023-09-08 18:51:30,15.69933181,0.0003015,69.9985,130.7145,255.0397,105.0465,2.1382e-05,2.36e-05,0.0,0 STARLINK-6304,1 56778U 23078M   23251.78577099  .00002360  00000-0  21382-4 0  9999,2 56778  69.9985 130.7145 0003015 255.0397 105.0465 15.69933181 15825,6737.225,91.724,361.121,357.059,0.0
56778.0,STARLINK-6304,PAYLOAD,2023-09-09 02:30:16,15.69926759,0.0003619,69.998,129.8181,269.4645,90.6136,1.3418e-05,1.401e-05,0.0,0 STARLINK-6304,1 56778U 23078M   23252.10435996  .00001401  00000-0  13418-4 0  9991,2 56778  69.9980 129.8181 0003619 269.4645  90.6136 15.69926759 16136,6737.244,91.724,361.547,356.67,0.0
56778.0,STARLINK-6304,PAYLOAD,2023-09-10 01:26:33,15.69924199,0.0003262,69.9974,127.1313,275.0249,85.0574,1.372e-05,1.437e-05,0.0,0 STARLINK-6304,1 56778U 23078M   23253.06011330  .00001437  00000-0  13720-4 0  9994,2 56778  69.9974 127.1313 0003262 275.0249  85.0574 15.69924199 16280,6737.251,91.724,361.314,356.918,0.0
56778.0,STARLINK-6304,PAYLOAD,2023-09-11 00:22:50,15.69935148,0.0003463,69.9977,124.4453,267.134,92.946,5.3038e-06,4.25e-06,0.0,0 STARLINK-6304,1 56778U 23078M   23254.01585849  .00000425  00000-0  53038-5 0  9994,2 56778  69.9977 124.4453 0003463 267.1340  92.9460 15.69935148 16170,6737.22,91.724,361.418,356.751,0.0
56778.0,STARLINK-6304,PAYLOAD,2023-09-11 17:12:06,15.69920803,0.0003421,69.9975,122.4743,271.6592,88.4211,2.2586e-05,2.503e-05,0.0,0 STARLINK-6304,1 56778U 23078M   23254.71674655  .00002503  00000-0  22586-4 0  9997,2 56778  69.9975 122.4743 0003421 271.6592  88.4211 15.69920803 16548,6737.261,91.724,361.43,356.821,0.0
56778.0,STARLINK-6304,PAYLOAD,2023-09-12 00:50:52,15.69919615,0.0003534,69.9969,121.5777,269.2333,90.8458,1.6066e-05,1.719e-05,0.0,0 STARLINK-6304,1 56778U 23078M   23255.03533262  .00001719  00000-0  16066-4 0  9995,2 56778  69.9969 121.5777 0003534 269.2333  90.8458 15.69919615 16335,6737.264,91.724,361.51,356.748,0.0
